BEIDOU 3 (C01)          
1 36287U 10001A   21063.89472855 -.00000292  00000-0  00000-0 0  9992
2 36287   1.7216  41.8966 0003023  87.3215 136.0837  1.00274520 40804
BEIDOU 5 (C06)          
1 36828U 10036A   21064.04096898 -.00000152  00000-0  00000+0 0  9992
2 36828  54.1755 180.5649 0107882 234.3109 239.8426  1.00293969 38865
BEIDOU 6 (C04)          
1 37210U 10057A   21063.79841074 -.00000123  00000-0  00000-0 0  9995
2 37210   0.9581  54.2660 0004052 197.8903 358.0565  1.00270954 37920
BEIDOU 7 (C07)          
1 37256U 10068A   21063.82216170 -.00000198  00000-0  00000-0 0  9996
2 37256  51.0402 295.2516 0081815 216.1390  66.0777  1.00289567 37430
BEIDOU 8 (C08)          
1 37384U 11013A   21063.95749355 -.00000173  00000-0  00000-0 0  9992
2 37384  59.6329  58.9539 0054505 207.4808   0.6872  1.00283447 36313
BEIDOU 9 (C09)          
1 37763U 11038A   21063.78254991 -.00000086  00000-0  00000-0 0  9991
2 37763  54.4649 182.9932 0078560 224.1756 131.7259  1.00286731 35281
BEIDOU 10 (C10)         
1 37948U 11073A   21063.05731867 -.00000140  00000-0  00000-0 0  9998
2 37948  51.1414 294.8647 0069301 215.0489 128.8408  1.00277264 34037
BEIDOU 11 (C05)         
1 38091U 12008A   21063.87059780  .00000046  00000-0  00000-0 0  9998
2 38091   1.3310  64.4055 0008352 298.5103 171.9934  1.00270097 33120
BEIDOU 12 (C11)         
1 38250U 12018A   21063.62125948 -.00000086  00000-0  00000-0 0  9994
2 38250  56.7571   9.0742 0023339 252.3145 316.3820  1.86234401 60339
BEIDOU 13 (C12)         
1 38251U 12018B   21063.55783355 -.00000086  00000-0  00000-0 0  9999
2 38251  56.6788   8.4298 0014438 257.9600 312.6504  1.86234282 60330
BEIDOU 15 (C14)         
1 38775U 12050B   21063.94396472 -.00000015  00000-0  00000+0 0  9990
2 38775  55.1598 127.5049 0014323 316.7965 350.0655  1.86232334 57719
BEIDOU 16 (C02)         
1 38953U 12059A   21062.89355249 -.00000186  00000-0  00000-0 0  9997
2 38953   1.7150  84.9091 0009903 269.0891 213.6238  1.00272410 30680
BEIDOU 17 (C31)         
1 40549U 15019A   21064.06730229 -.00000177  00000-0  00000+0 0  9995
2 40549  52.6603 318.1997 0036403 188.1637 136.1999  1.00289266 21728
BEIDOU 18 (C57)         
1 40748U 15037A   21063.65099814 -.00000088  00000-0  00000-0 0  9990
2 40748  55.9447   7.5766 0005368 343.9042 199.1883  1.86233507 38169
BEIDOU 19 (C58)         
1 40749U 15037B   21063.42990067 -.00000087  00000-0  00000-0 0  9995
2 40749  55.9470   7.5718 0007118 316.9987 214.4114  1.86232211 38154
BEIDOU 20 (C18)         
1 40938U 15053A   21064.06507436 -.00000102  00000-0  00000+0 0  9995
2 40938  52.2244 281.2552 0046126 189.9527 170.1137  1.00260282 20014
BEIDOU IGSO-6 (C13)     
1 41434U 16021A   21063.40107453 -.00000136  00000-0  00000+0 0  9992
2 41434  57.4127  57.7439 0040617 216.3263 127.7456  1.00290857 18115
BEIDOU-2 G7 (C03)       
1 41586U 16037A   21062.86993910 -.00000363  00000-0  00000+0 0  9999
2 41586   1.4795  64.0280 0009417   8.4414 153.0679  1.00273427 17414
BEIDOU-3 M1 (C19)       
1 43001U 17069A   21063.91533979 -.00000014  00000-0  00000+0 0  9994
2 43001  55.3149 127.4459 0010239 285.3724 158.6017  1.86231720 22658
BEIDOU-3 M2 (C20)       
1 43002U 17069B   21063.97737028 -.00000015  00000-0  00000+0 0  9993
2 43002  55.3138 127.4805 0008614 305.5420 223.6231  1.86231531 22644
BEIDOU-3 M3 (C27)       
1 43107U 18003A   21063.97944088 -.00000090  00000-0  00000+0 0  9997
2 43107  55.3852   8.6943 0004659  26.1161 310.3117  1.86232600 21407
BEIDOU-3 M4 (C28)       
1 43108U 18003B   21063.82072708 -.00000090  00000-0  00000-0 0  9994
2 43108  55.3797   8.6893 0003916 264.4799  10.7218  1.86232603 21405
BEIDOU-3 M5 (C21)       
1 43207U 18018A   21063.32075211 -.00000007  00000-0  00000-0 0  9995
2 43207  55.2742 127.5969 0005960 325.1268  34.8991  1.86231596 20781
BEIDOU-3 M6 (C22)       
1 43208U 18018B   21062.31356353  .00000006  00000-0  00000-0 0  9991
2 43208  55.2734 127.6354 0008376 294.8654  65.1225  1.86231811 20762
BEIDOU-3 M7 (C29)       
1 43245U 18029A   21064.01674495 -.00000092  00000-0  00000+0 0  9998
2 43245  55.3213   6.4890 0001704 317.1723 314.4084  1.86232683 19948
BEIDOU-3 M8 (C30)       
1 43246U 18029B   21063.21634618 -.00000087  00000-0  10000-3 0  9992
2 43246  55.3185   6.5485 0005365 338.9247 162.1312  1.86232954 19928
BEIDOU IGSO-7 (C16)     
1 43539U 18057A   21063.98344477 -.00000137  00000-0  00000+0 0  9994
2 43539  55.0556 179.8920 0032604 213.7866 233.6989  1.00245329  9809
BEIDOU-3 M9 (C23)       
1 43581U 18062A   21063.49428243  .00000066  00000-0  00000-0 0  9998
2 43581  54.4471 248.1990 0002156 318.5079 218.7236  1.86231892 17678
BEIDOU-3 M10 (C24)      
1 43582U 18062B   21063.62156657  .00000067  00000-0  00000-0 0  9992
2 43582  54.4449 248.1839 0006380  17.0444 336.7923  1.86232192 17674
BEIDOU-3 M11 (C25)      
1 43602U 18067A   21063.87439039  .00000069  00000-0  00000+0 0  9996
2 43602  54.5223 246.7488 0007395   6.7964 198.9216  1.86231637 17172
BEIDOU-3 M12 (C26)      
1 43603U 18067B   21063.42693632  .00000067  00000-0  00000-0 0  9998
2 43603  54.5152 246.7332 0004544   2.4160 173.7859  1.86231557 17182
BEIDOU-3 M13 (C32)      
1 43622U 18072A   21064.20816046 -.00000018  00000-0  00000+0 0  9994
2 43622  55.2386 127.1388 0006878 279.8082  90.4435  1.86231596 16714
BEIDOU-3 M14 (C33)      
1 43623U 18072B   21064.00841895 -.00000015  00000-0  00000+0 0  9990
2 43623  55.2380 127.1367 0005089 302.7009  23.8658  1.86231552 16702
BEIDOU-3 M15 (C34)      
1 43647U 18078A   21063.42185066 -.00000089  00000-0  10000-3 0  9994
2 43647  55.2143   6.7091 0007685 347.0647 201.4432  1.86232679 16205
BEIDOU-3 M16 (C35)      
1 43648U 18078B   21063.49022144 -.00000089  00000-0  10000-3 0  9999
2 43648  55.2103   6.7138 0005464 351.9773 151.0134  1.86232357 16225
BEIDOU-3 G1 (C59)       
1 43683U 18085A   21061.63782045 -.00000288  00000-0  00000-0 0  9990
2 43683   1.2378 239.4704 0003002  42.1974 248.6111  1.00269432  8680
BEIDOU-3 M17 (C36)      
1 43706U 18093A   21063.21380203  .00000065  00000-0  00000-0 0  9993
2 43706  54.5266 248.0600 0007516 279.2619 294.8745  1.86231892 15561
BEIDOU-3 M18 (C37)      
1 43707U 18093B   21064.14501031  .00000069  00000-0  00000+0 0  9994
2 43707  54.5272 248.0166 0007075 311.0226 258.2052  1.86232129 15586
BEIDOU-3 IGSO-1 (C38)   
1 44204U 19023A   21063.81546418 -.00000195  00000-0  00000+0 0  9993
2 44204  55.8724  58.0509 0016792 205.8871 306.6365  1.00271030  7000
BEIDOU-2 G8             
1 44231U 19027A   21062.86429832 -.00000256  00000-0  00000+0 0  9999
2 44231   0.4223 316.8325 0006371 263.2068  37.5113  1.00271458  6711
BEIDOU-3 IGSO-2 (C39)   
1 44337U 19035A   21063.75653503 -.00000131  00000-0  00000-0 0  9991
2 44337  55.0876 175.9379 0017331 188.2792 177.7906  1.00263346  6342
BEIDOU-3 M23 (C45)      
1 44542U 19061A   21060.41453819  .00000055  00000-0  10000-3 0  9994
2 44542  54.7530 248.2040 0008166 344.7564 196.7658  1.86231422  9773
BEIDOU-3 M24 (C46)      
1 44543U 19061B   21063.22646817  .00000066  00000-0  10000-3 0  9991
2 44543  54.7490 248.0773 0005234 343.3255 194.1696  1.86231584  9835
BEIDOU-3 IGSO-3         
1 44709U 19073A   21062.59702231 -.00000150  00000-0  00000-0 0  9991
2 44709  58.0032 301.2461 0018754 191.4681 349.7492  1.00257773  5089
BEIDOU-3 M21            
1 44793U 19078A   21064.01091059 -.00000092  00000-0  10000-3 0  9996
2 44793  55.0601   6.7652 0007508 353.6834 184.3417  1.86232256  8702
BEIDOU-3 M22            
1 44794U 19078B   21063.53018066 -.00000089  00000-0  10000-3 0  9996
2 44794  55.0373   6.7854 0005650 347.6815 138.8143  1.86232765  8694
BEIDOU-3 M19            
1 44864U 19090A   21063.66897002 -.00000012  00000-0  00000-0 0  9999
2 44864  55.1732 127.3925 0016624 263.7954 150.3654  1.86231846  8286
BEIDOU-3 M20            
1 44865U 19090B   21063.97688146 -.00000015  00000-0  00000+0 0  9993
2 44865  55.1753 127.4121 0015137 277.9519  72.5729  1.86231776  8269
BEIDOU-3 G2             
1 45344U 20017A   21063.85254035 -.00000150  00000-0  00000-0 0  9991
2 45344   2.5693 333.5322 0002085  46.6775 169.4906  1.00270489  3917
BEIDOU-3 G3             
1 45807U 20040A   21063.92891914 -.00000365  00000-0  00000-0 0  9990
2 45807   2.5252 298.3852 0009205  14.7544 294.6892  1.00272573  2728
